{"type": "FeatureCollection", "features": [{"type": "Feature", "properties": {"norad_id": 50032, "name": "COSMOS 1408 DEB", "group": "cosmos-1408-debris", "lat": 82.48456228167653, "lon": 155.90525053852664, "alt_km": 426.20004378157137, "timestamp": "2025-12-13T10:41:26.036421+00:00", "meta": {"OBJECT_NAME": "COSMOS 1408 DEB", "OBJECT_ID": "1982-092RU", "EPOCH": "2025-12-12T15:39:09.139968", "MEAN_MOTION": 15.45692174, "ECCENTRICITY": 0.00152369, "INCLINATION": 82.5643, "RA_OF_ASC_NODE": 58.5985, "ARG_OF_PERICENTER": 208.8397, "MEAN_ANOMALY": 151.2012, "EPHEMERIS_TYPE": 0, "CLASSIFICATION_TYPE": "U", "NORAD_CAT_ID": 50032, "ELEMENT_SET_NO": 999, "REV_AT_EPOCH": 22602, "BSTAR": 0.00014991822, "MEAN_MOTION_DOT": 7.305e-05, "MEAN_MOTION_DDOT": 0}, "tle": {"line1": "1 50032U 82092RU  25346.65218912  .00007305  00000+0  14992-3 0  9997", "line2": "2 50032  82.5643  58.5985 0015236 208.8397 151.2012 15.45692174226022"}}, "geometry": {"type": "Point", "coordinates": [155.90525053852664, 82.48456228167653]}}, {"type": "Feature", "properties": {"norad_id": 50058, "name": "COSMOS 1408 DEB", "group": "cosmos-1408-debris", "lat": -20.415362677283696, "lon": 65.83543174143644, "alt_km": 385.86802368272856, "timestamp": "2025-12-13T10:41:26.036443+00:00", "meta": {"OBJECT_NAME": "COSMOS 1408 DEB", "OBJECT_ID": "1982-092SW", "EPOCH": "2025-12-12T16:21:12.107232", "MEAN_MOTION": 15.64089875, "ECCENTRICITY": 0.00163361, "INCLINATION": 82.6136, "RA_OF_ASC_NODE": 69.4027, "ARG_OF_PERICENTER": 98.4134, "MEAN_ANOMALY": 261.8978, "EPHEMERIS_TYPE": 0, "CLASSIFICATION_TYPE": "U", "NORAD_CAT_ID": 50058, "ELEMENT_SET_NO": 999, "REV_AT_EPOCH": 22803, "BSTAR": 0.00043572408, "MEAN_MOTION_DOT": 0.00041655, "MEAN_MOTION_DDOT": 0}, "tle": {"line1": "1 50058U 82092SW  25346.68139013  .00041655  00000+0  43572-3 0  9994", "line2": "2 50058  82.6136  69.4027 0016336  98.4134 261.8978 15.64089875228031"}}, "geometry": {"type": "Point", "coordinates": [65.83543174143644, -20.415362677283696]}}, {"type": "Feature", "properties": {"norad_id": 50404, "name": "COSMOS 1408 DEB", "group": "cosmos-1408-debris", "lat": -35.76110662835727, "lon": -151.35247394281726, "alt_km": 601.3000717612285, "timestamp": "2025-12-13T10:41:26.036458+00:00", "meta": {"OBJECT_NAME": "COSMOS 1408 DEB", "OBJECT_ID": "1982-092ADS", "EPOCH": "2025-12-12T22:09:48.585600", "MEAN_MOTION": 15.1382944, "ECCENTRICITY": 0.01715157, "INCLINATION": 82.2033, "RA_OF_ASC_NODE": 214.8452, "ARG_OF_PERICENTER": 198.2286, "MEAN_ANOMALY": 161.2752, "EPHEMERIS_TYPE": 0, "CLASSIFICATION_TYPE": "U", "NORAD_CAT_ID": 50404, "ELEMENT_SET_NO": 999, "REV_AT_EPOCH": 21196, "BSTAR": 0.003851793, "MEAN_MOTION_DOT": 0.00101611, "MEAN_MOTION_DDOT": 0}, "tle": {"line1": "1 50404U 82092ADS 25346.92347900  .00101611  00000+0  38518-2 0  9994", "line2": "2 50404  82.2033 214.8452 0171515 198.2286 161.2752 15.13829440211965"}}, "geometry": {"type": "Point", "coordinates": [-151.35247394281726, -35.76110662835727]}}, {"type": "Feature", "properties": {"norad_id": 50621, "name": "COSMOS 1408 DEB", "group": "cosmos-1408-debris", "lat": -22.816627840725914, "lon": 70.2980788937713, "alt_km": 422.1576891140976, "timestamp": "2025-12-13T10:41:26.036469+00:00", "meta": {"OBJECT_NAME": "COSMOS 1408 DEB", "OBJECT_ID": "1982-092ALR", "EPOCH": "2025-12-12T16:16:35.823360", "MEAN_MOTION": 15.56652836, "ECCENTRICITY": 0.00288991, "INCLINATION": 82.5701, "RA_OF_ASC_NODE": 74.2441, "ARG_OF_PERICENTER": 152.68, "MEAN_ANOMALY": 207.5983, "EPHEMERIS_TYPE": 0, "CLASSIFICATION_TYPE": "U", "NORAD_CAT_ID": 50621, "ELEMENT_SET_NO": 999, "REV_AT_EPOCH": 22249, "BSTAR": 0.00050710514, "MEAN_MOTION_DOT": 0.00036954, "MEAN_MOTION_DDOT": 0}, "tle": {"line1": "1 50621U 82092ALR 25346.67819240  .00036954  00000+0  50711-3 0  9995", "line2": "2 50621  82.5701  74.2441 0028899 152.6800 207.5983 15.56652836222499"}}, "geometry": {"type": "Point", "coordinates": [70.2980788937713, -22.816627840725914]}}]}